IRIDIUM 8 [+]           
1 24792U 97020A   14261.24444331  .00000387  00000-0  13129-3 0  9763
2 24792  86.4007  17.9130 0002301 112.1585 247.9855 14.34220287909440
IRIDIUM 7 [+]           
1 24793U 97020B   14261.38912164  .00000387  00000-0  13125-3 0  9703
2 24793  86.4010  18.0799 0002267 112.4712 307.0280 14.34216813909466
IRIDIUM 6 [+]           
1 24794U 97020C   14261.37128170  .00000219  00000-0  71084-4 0  7755
2 24794  86.4009  18.0394 0002308 109.4590 250.6855 14.34211526909469
IRIDIUM 5 [+]           
1 24795U 97020D   14261.36494957  .00000045  00000-0  89922-5 0  1857
2 24795  86.4006  18.1263 0002043 111.4458 248.6956 14.34220252909549
IRIDIUM 4 [-]           
1 24796U 97020E   14261.35321840  .00000365  00000-0  12217-3 0  9996
2 24796  86.4004  17.5933 0002306 110.8894 301.7111 14.34695815909493
IRIDIUM 914 [-]         
1 24836U 97030A   14261.49064590  .00000390  00000-0  12165-3 0  5382
2 24836  86.3957  36.9818 0003525 130.6108 295.7824 14.38292789904791
IRIDIUM 12 [+]          
1 24837U 97030B   14261.46179434  .00000206  00000-0  66441-4 0  9842
2 24837  86.3957  49.2416 0002138 111.1944 305.5386 14.34220875903227
IRIDIUM 10 [+]          
1 24839U 97030D   14260.97226302  .00000235  00000-0  76845-4 0    06
2 24839  86.3956  49.4324 0002191 111.3077   4.9527 14.34221795903168
IRIDIUM 13 [+]          
1 24840U 97030E   14261.46826398  .00000214  00000-0  69499-4 0  9298
2 24840  86.3958  49.3440 0002082 114.9763 302.4329 14.34217522903226
IRIDIUM 16 [-]          
1 24841U 97030F   14261.45375465  .00000400  00000-0  13056-3 0  9443
2 24841  86.4036  49.8284 0001065  50.8426   5.1575 14.36197773903632
IRIDIUM 911 [-]         
1 24842U 97030G   14261.51599192  .00000544  00000-0  15204-3 0  6506
2 24842  86.4459  51.1603 0015526 172.1041 253.3671 14.44332925908189
IRIDIUM 15 [+]          
1 24869U 97034A   14261.45914435  .00000158  00000-0  49327-4 0   658
2 24869  86.3920  80.9693 0002072 107.1613 311.2876 14.34221814900191
IRIDIUM 17 [-]          
1 24870U 97034B   14261.45999108  .00000389  00000-0  12908-3 0  9491
2 24870  86.3922  80.2148 0001744 130.4989 290.2460 14.35294797900313
IRIDIUM 920 [-]         
1 24871U 97034C   14261.47011208  .00000394  00000-0  12124-3 0  5830
2 24871  86.3943  68.8025 0012752  47.5985   3.9161 14.38985819902121
IRIDIUM 18 [+]          
1 24872U 97034D   14261.47955551  .00000142  00000-0  43535-4 0  9644
2 24872  86.3923  81.1708 0002057 103.5563 256.5862 14.34216494900199
IRIDIUM 921 [-]         
1 24873U 97034E   14261.33658972  .00005770  00000-0  40167-3 0   456
2 24873  86.3897 178.6169 0010779  79.5254  42.4112 15.05227963936834
IRIDIUM 26 [-]          
1 24903U 97043A   14261.25388707  .00000352  00000-0  11730-3 0  1116
2 24903  86.3967 314.5895 0002263 106.3346 320.2938 14.34827986894134
IRIDIUM 25 [+]          
1 24904U 97043B   14261.21857101  .00000345  00000-0  11626-3 0    72
2 24904  86.3960 314.6947 0002288 106.2718 253.8730 14.34218686894059
IRIDIUM 46 [+]          
1 24905U 97043C   14261.23125478  .00000333  00000-0  11195-3 0  9954
2 24905  86.3970 315.1504 0002380 107.9676 252.1779 14.34215177894079
IRIDIUM 23 [S]          
1 24906U 97043D   14261.23727347  .00000346  00000-0  11665-3 0   270
2 24906  86.3974 314.5833 0002536 101.6961 322.3208 14.34211073894082
IRIDIUM 22 [+]          
1 24907U 97043E   14261.21089282  .00000300  00000-0  10003-3 0  9676
2 24907  86.3970 315.2506 0002351 109.1441 309.5685 14.34215378894072
DUMMY MASS 1 [-]        
1 24925U 97048A   14260.31222547  .00000327  00000-0  35366-4 0  9189
2 24925  86.3384 146.1414 0006462  11.2960 121.3870 14.84686171922612
DUMMY MASS 2 [-]        
1 24926U 97048B   14260.78454019  .00000343  00000-0  37499-4 0  9112
2 24926  86.3385 146.8745 0007435  14.0256  27.9053 14.84458619922559
IRIDIUM 29 [-]          
1 24944U 97051A   14261.40759268  .00000218  00000-0  70711-4 0  9058
2 24944  86.4010 346.2411 0002359 111.2482 248.8965 14.34333025890673
IRIDIUM 32 [+]          
1 24945U 97051B   14261.29809681  .00000145  00000-0  44572-4 0  9988
2 24945  86.4008 346.3206 0002385 111.7809 248.3641 14.34217437890675
IRIDIUM 33 [-]          
1 24946U 97051C   14261.35377821  .00000255  00000-0  85830-4 0   741
2 24946  86.3925 346.3690 0005876 262.7009 165.4246 14.33184447890388
IRIDIUM 28 [-]          
1 24948U 97051E   14261.35428079  .00000282  00000-0  92032-4 0  8161
2 24948  86.4014 346.0468 0001924 103.1692 325.3770 14.35106009890723
IRIDIUM 30 [+]          
1 24949U 97051F   14261.29173003  .00000419  00000-0  14261-3 0   340
2 24949  86.4016 346.4039 0002646 110.7791 249.3688 14.34206575890653
IRIDIUM 31 [+]          
1 24950U 97051G   14261.28541289  .00000405  00000-0  13757-3 0  9541
2 24950  86.4008 346.4092 0002407 116.8878 243.2564 14.34217230890660
IRIDIUM 19 [+]          
1 24965U 97056A   14261.40933045  .00000086  00000-0  23793-4 0  9324
2 24965  86.4007  17.8456 0002247 113.7132 246.4299 14.34209488888820
IRIDIUM 35 [+]          
1 24966U 97056B   14261.42202699  .00000401  00000-0  13619-3 0  9844
2 24966  86.4007  17.8437 0002258 112.2744 247.8692 14.34216606888805
IRIDIUM 36 [-]          
1 24967U 97056C   14261.39051632  .00000342  00000-0  11290-3 0  9218
2 24967  86.4017  17.6260 0002239 114.3616 306.0056 14.35155401889011
IRIDIUM 37 [+]          
1 24968U 97056D   14261.46643148  .00000403  00000-0  13701-3 0  9561
2 24968  86.4009  17.9822 0002286 113.0057 247.1380 14.34219375888819
IRIDIUM 34 [+]          
1 24969U 97056E   14261.20638567  .00000393  00000-0  13332-3 0  9370
2 24969  86.4007  18.0289 0002266 111.7998 248.3439 14.34221418888778
IRIDIUM 43 [+]          
1 25039U 97069A   14261.47318312  .00000027  00000-0  25852-5 0  9405
2 25039  86.3911  81.0928 0002081 113.9025 246.2388 14.34220302882595
IRIDIUM 41 [+]          
1 25040U 97069B   14261.47975829  .00000141  00000-0  43429-4 0  9393
2 25040  86.3922  81.0666 0002053 101.6146 325.0490 14.34221543882593
IRIDIUM 40 [+]          
1 25041U 97069C   14261.49223640  .00000151  00000-0  46758-4 0  9932
2 25041  86.3920  81.0040 0002065 106.6234 253.5188 14.34221771882619
IRIDIUM 39 [+]          
1 25042U 97069D   14261.49860663  .00000082  00000-0  22062-4 0  9660
2 25042  86.3916  81.2836 0002109 113.0795 247.0623 14.34216741882593
IRIDIUM 38 [-]          
1 25043U 97069E   14261.49185693  .00000358  00000-0  11759-3 0  9233
2 25043  86.3921  79.3663 0001275  77.9491 338.3798 14.35557519882858
IRIDIUM 42 [+]          
1 25077U 97077A   14261.48579596  .00000218  00000-0  70832-4 0  9522
2 25077  86.3922  81.1206 0002074 107.1390 253.0033 14.34229662878452
IRIDIUM 44 [-]          
1 25078U 97077B   14261.46821998  .00000413  00000-0  13138-3 0  4445
2 25078  86.3928  73.1208 0001030  55.6553 359.0749 14.37580858879543
IRIDIUM 45 [+]          
1 25104U 97082A   14261.48792219  .00000387  00000-0  13155-3 0  8922
2 25104  87.0285 326.5870 0002314 101.7835 258.3622 14.34211493876652
IRIDIUM 24 [-]          
1 25105U 97082B   14261.18709943  .00000359  00000-0  10919-3 0  4797
2 25105  86.3904 298.8405 0012987  55.4761   7.7945 14.39322118878555
IRIDIUM 47 [+]          
1 25106U 97082C   14261.25030758  .00000320  00000-0  10734-3 0  8851
2 25106  86.3957 314.5855 0002431 106.1807 319.6199 14.34213112876616
IRIDIUM 49 [+]          
1 25108U 97082E   14261.26337905  .00000333  00000-0  11173-3 0  9121
2 25108  86.3960 314.6563 0002376 107.3538 320.3673 14.34218473876623
IRIDIUM 52 [+]          
1 25169U 98010A   14261.50133986  .00000216  00000-0  70167-4 0  6799
2 25169  86.3961  49.4727 0002140 111.4448 313.0278 14.34219297868065
IRIDIUM 56 [+]          
1 25170U 98010B   14261.02108506  .00000125  00000-0  37593-4 0  7255
2 25170  86.3955  49.7644 0002241 106.0571  32.6380 14.34230546867977
IRIDIUM 54 [+]          
1 25171U 98010C   14261.44447529  .00000202  00000-0  64966-4 0  9097
2 25171  86.3962  49.5119 0002156 111.6952 248.4473 14.34217367868204
IRIDIUM 50 [+]          
1 25172U 98010D   14261.01471380  .00000212  00000-0  68594-4 0  9736
2 25172  86.3960  49.6533 0002169 111.4665  27.4793 14.34220263867979
IRIDIUM 53 [+]          
1 25173U 98010E   14261.03355973  .00000143  00000-0  44013-4 0  9416
2 25173  86.3959  49.6517 0002151 111.8703  26.2258 14.34217090867986
IRIDIUM 51 [S]          
1 25262U 98018A   14261.37751406  .00000393  00000-0  13339-3 0   594
2 25262  86.4015  18.1340 0002632 107.2062 252.9422 14.34215292867427
IRIDIUM 61 [+]          
1 25263U 98018B   14261.40300936  .00000384  00000-0  12991-3 0  8600
2 25263  86.4009  17.9765 0002259 111.8879 248.2557 14.34215499863131
IRIDIUM 55 [+]          
1 25272U 98019A   14261.33614237  .00000246  00000-0  80645-4 0  8637
2 25272  86.4006 346.2198 0002352 111.6071 248.5376 14.34212971862326
IRIDIUM 57 [+]          
1 25273U 98019B   14261.45032438  .00000422  00000-0  14378-3 0  8958
2 25273  86.4011 346.4348 0002354 109.8626 250.2824 14.34219644862343
IRIDIUM 58 [+]          
1 25274U 98019C   14261.31712690  .00000408  00000-0  13861-3 0  7442
2 25274  86.4014 346.6588 0002406 108.7903 251.3554 14.34221631862328
IRIDIUM 59 [+]          
1 25275U 98019D   14261.32347117  .00000180  00000-0  57352-4 0  5003
2 25275  86.4008 346.5640 0002429 113.3137 246.8315 14.34217700862322
IRIDIUM 60 [+]          
1 25276U 98019E   14261.32981441  .00000417  00000-0  14180-3 0  9635
2 25276  86.4006 346.2197 0002323 110.1713 249.9733 14.34218872862322
IRIDIUM 62 [+]          
1 25285U 98021A   14261.43079317  .00000160  00000-0  50072-4 0  9254
2 25285  86.3919 283.0494 0002389 104.7713 255.3747 14.34218775861296
IRIDIUM 63 [+]          
1 25286U 98021B   14261.45935539  .00000315  00000-0  10526-3 0  9693
2 25286  86.3947 283.3209 0002443 109.0786   6.4727 14.34232249861299
